[{"OBJECT_NAME":"OBJECT B","OBJECT_ID":"2022-056B","EPOCH":"2026-03-09T22:39:35.138880","MEAN_MOTION":13.29579463,"ECCENTRICITY":0.00429696,"INCLINATION":86.011,"RA_OF_ASC_NODE":137.4743,"ARG_OF_PERICENTER":311.6914,"MEAN_ANOMALY":48.0548,"EPHEMERIS_TYPE":0,"CLASSIFICATION_TYPE":"U","NORAD_CAT_ID":52717,"ELEMENT_SET_NO":999,"REV_AT_EPOCH":18512,"BSTAR":-0.00081071563,"MEAN_MOTION_DOT":-3.63e-6,"MEAN_MOTION_DDOT":0},{"OBJECT_NAME":"HULIANWANG DIGUI-39","OBJECT_ID":"2025-159E","EPOCH":"2026-03-09T22:54:37.619712","MEAN_MOTION":13.24420172,"ECCENTRICITY":0.00013922,"INCLINATION":86.4971,"RA_OF_ASC_NODE":315.9415,"ARG_OF_PERICENTER":75.4668,"MEAN_ANOMALY":284.6621,"EPHEMERIS_TYPE":0,"CLASSIFICATION_TYPE":"U","NORAD_CAT_ID":64960,"ELEMENT_SET_NO":999,"REV_AT_EPOCH":2999,"BSTAR":9.9833013e-5,"MEAN_MOTION_DOT":5.8e-7,"MEAN_MOTION_DDOT":0}]
